start=new Date('2022-12-18T00:00:00.000Z').valueOf();
sats=[{"APOAPSIS":"541.541","SEMIMAJOR_AXIS":"6917.890","BSTAR":"0.00004843800000","LAUNCH_DATE":"2022-02-21","MEAN_ELEMENT_THEORY":"SGP4","MEAN_MOTION_DDOT":"0.0000000000000","NORAD_CAT_ID":"51741","MEAN_MOTION_DOT":"0.00000482","TLE_LINE1":"1 51741U 22016AD  22351.89260362  .00000482  00000-0  48438-4 0  9993","RCS_SIZE":"LARGE","OBJECT_NAME":"STARLINK-3520","EPHEMERIS_TYPE":"0","FILE":"3707070","INCLINATION":"53.2164","OBJECT_ID":"2022-016AD","SITE":"AFETR","CENTER_NAME":"EARTH","DECAY_DATE":null,"REV_AT_EPOCH":"4575","CLASSIFICATION_TYPE":"U","PERIOD":"95.438","OBJECT_TYPE":"PAYLOAD","REF_FRAME":"TEME","EPOCH":"2022-12-17T21:25:20.952768","RA_OF_ASC_NODE":"206.4659","PERIAPSIS":"537.969","TIME_SYSTEM":"UTC","ECCENTRICITY":"0.00025820","ELEMENT_SET_NO":"999","GP_ID":"220758115","COUNTRY_CODE":"US","MEAN_MOTION":"15.08836776","TLE_LINE2":"2 51741  53.2164 206.4659 0002582  35.5875 324.5288 15.08836776 45757","ARG_OF_PERICENTER":"35.5875","MEAN_ANOMALY":"324.5288"},{"INCLINATION":"53.2169","OBJECT_ID":"2022-016AE","SITE":"AFETR","DECAY_DATE":null,"CLASSIFICATION_TYPE":"U","REV_AT_EPOCH":"4575","CENTER_NAME":"EARTH","REF_FRAME":"TEME","OBJECT_TYPE":"PAYLOAD","PERIOD":"95.438","EPOCH":"2022-12-17T21:04:09.761664","APOAPSIS":"541.691","BSTAR":"0.00000873870000","LAUNCH_DATE":"2022-02-21","SEMIMAJOR_AXIS":"6917.895","MEAN_ELEMENT_THEORY":"SGP4","NORAD_CAT_ID":"51742","MEAN_MOTION_DDOT":"0.0000000000000","RCS_SIZE":"LARGE","MEAN_MOTION_DOT":"-0.00000149","TLE_LINE1":"1 51742U 22016AE  22351.87789076 -.00000149  00000-0  87387-5 0  9998","OBJECT_NAME":"STARLINK-3521","FILE":"3707070","EPHEMERIS_TYPE":"0","ELEMENT_SET_NO":"999","GP_ID":"220758366","COUNTRY_CODE":"US","ARG_OF_PERICENTER":"33.0823","MEAN_MOTION":"15.08835085","TLE_LINE2":"2 51742  53.2169 206.5257 0002791  33.0823 327.0344 15.08835085 45759","MEAN_ANOMALY":"327.0344","RA_OF_ASC_NODE":"206.5257","PERIAPSIS":"537.830","TIME_SYSTEM":"UTC","ECCENTRICITY":"0.00027910"},{"TIME_SYSTEM":"UTC","PERIAPSIS":"537.663","RA_OF_ASC_NODE":"196.6940","ECCENTRICITY":"0.00030050","COUNTRY_CODE":"US","GP_ID":"220757115","ELEMENT_SET_NO":"999","MEAN_ANOMALY":"325.6608","ARG_OF_PERICENTER":"34.4578","TLE_LINE2":"2 51743  53.2147 196.6940 0003005  34.4578 325.6608 15.08841157 45883","MEAN_MOTION":"15.08841157","NORAD_CAT_ID":"51743","MEAN_MOTION_DDOT":"0.0000000000000","MEAN_ELEMENT_THEORY":"SGP4","LAUNCH_DATE":"2022-02-21","BSTAR":"0.00014984000000","SEMIMAJOR_AXIS":"6917.877","APOAPSIS":"541.821","FILE":"3707070","EPHEMERIS_TYPE":"0","OBJECT_NAME":"STARLINK-3512","RCS_SIZE":"LARGE","MEAN_MOTION_DOT":"0.00002097","TLE_LINE1":"1 51743U 22016AF  22351.83832309  .00002097  00000-0  14984-3 0  9997","REV_AT_EPOCH":"4588","DECAY_DATE":null,"CLASSIFICATION_TYPE":"U","CENTER_NAME":"EARTH","SITE":"AFETR","OBJECT_ID":"2022-016AF","INCLINATION":"53.2147","EPOCH":"2022-12-17T20:07:11.114976","REF_FRAME":"TEME","OBJECT_TYPE":"PAYLOAD","PERIOD":"95.437"},{"MEAN_MOTION":"15.08833823","TLE_LINE2":"2 51744  53.2159 206.5598 0002848  30.0425 330.0730 15.08833823 45757","ARG_OF_PERICENTER":"30.0425","MEAN_ANOMALY":"330.0730","ELEMENT_SET_NO":"999","GP_ID":"220757364","COUNTRY_CODE":"US","ECCENTRICITY":"0.00028480","RA_OF_ASC_NODE":"206.5598","PERIAPSIS":"537.794","TIME_SYSTEM":"UTC","PERIOD":"95.438","OBJECT_TYPE":"PAYLOAD","REF_FRAME":"TEME","EPOCH":"2022-12-17T20:54:56.353248","INCLINATION":"53.2159","OBJECT_ID":"2022-016AG","SITE":"AFETR","CLASSIFICATION_TYPE":"U","DECAY_DATE":null,"REV_AT_EPOCH":"4575","CENTER_NAME":"EARTH","TLE_LINE1":"1 51744U 22016AG  22351.87148557 -.00001924  00000-0 -10282-3 0  9994","MEAN_MOTION_DOT":"-0.00001924","RCS_SIZE":"LARGE","OBJECT_NAME":"STARLINK-3452","EPHEMERIS_TYPE":"0","FILE":"3707070","APOAPSIS":"541.734","SEMIMAJOR_AXIS":"6917.899","LAUNCH_DATE":"2022-02-21","BSTAR":"-0.00010282000000","MEAN_ELEMENT_THEORY":"SGP4","MEAN_MOTION_DDOT":"0.0000000000000","NORAD_CAT_ID":"51744"},{"PERIOD":"95.438","OBJECT_TYPE":"PAYLOAD","REF_FRAME":"TEME","EPOCH":"2022-12-17T21:14:45.568896","SITE":"AFETR","CENTER_NAME":"EARTH","DECAY_DATE":null,"REV_AT_EPOCH":"4575","CLASSIFICATION_TYPE":"U","INCLINATION":"53.2158","OBJECT_ID":"2022-016AH","EPHEMERIS_TYPE":"0","FILE":"3707070","MEAN_MOTION_DOT":"-0.00001479","TLE_LINE1":"1 51745U 22016AH  22351.88524964 -.00001479  00000-0 -74808-4 0  9996","RCS_SIZE":"LARGE","OBJECT_NAME":"STARLINK-3449","MEAN_ELEMENT_THEORY":"SGP4","MEAN_MOTION_DDOT":"0.0000000000000","NORAD_CAT_ID":"51745","APOAPSIS":"541.885","SEMIMAJOR_AXIS":"6917.898","LAUNCH_DATE":"2022-02-21","BSTAR":"-0.00007480800000","MEAN_ANOMALY":"329.1962","MEAN_MOTION":"15.08834315","TLE_LINE2":"2 51745  53.2158 206.4979 0003068  30.9211 329.1962 15.08834315 45759","ARG_OF_PERICENTER":"30.9211","GP_ID":"220758615","COUNTRY_CODE":"US","ELEMENT_SET_NO":"999","ECCENTRICITY":"0.00030680","TIME_SYSTEM":"UTC","RA_OF_ASC_NODE":"206.4979","PERIAPSIS":"537.640"},{"PERIAPSIS":"537.705","RA_OF_ASC_NODE":"196.7216","TIME_SYSTEM":"UTC","ECCENTRICITY":"0.00029470","ELEMENT_SET_NO":"999","COUNTRY_CODE":"US","GP_ID":"220758866","MEAN_MOTION":"15.08840405","TLE_LINE2":"2 51746  53.2155 196.7216 0002947  29.8533 330.2626 15.08840405 45882","ARG_OF_PERICENTER":"29.8533","MEAN_ANOMALY":"330.2626","SEMIMAJOR_AXIS":"6917.879","BSTAR":"0.00011105000000","LAUNCH_DATE":"2022-02-21","APOAPSIS":"541.783","MEAN_MOTION_DDOT":"0.0000000000000","NORAD_CAT_ID":"51746","MEAN_ELEMENT_THEORY":"SGP4","OBJECT_NAME":"STARLINK-3502","TLE_LINE1":"1 51746U 22016AJ  22351.83464895  .00001479  00000-0  11105-3 0  9996","MEAN_MOTION_DOT":"0.00001479","RCS_SIZE":"LARGE","EPHEMERIS_TYPE":"0","FILE":"3707070","OBJECT_ID":"2022-016AJ","INCLINATION":"53.2155","CENTER_NAME":"EARTH","DECAY_DATE":null,"REV_AT_EPOCH":"4588","CLASSIFICATION_TYPE":"U","SITE":"AFETR","EPOCH":"2022-12-17T20:01:53.669280","PERIOD":"95.438","REF_FRAME":"TEME","OBJECT_TYPE":"PAYLOAD"},{"RA_OF_ASC_NODE":"206.5511","PERIAPSIS":"537.742","TIME_SYSTEM":"UTC","ECCENTRICITY":"0.00029310","ELEMENT_SET_NO":"999","GP_ID":"220757614","COUNTRY_CODE":"US","ARG_OF_PERICENTER":"31.7980","MEAN_MOTION":"15.08831933","TLE_LINE2":"2 51747  53.2158 206.5511 0002931  31.7980 328.3188 15.08831933 45758","MEAN_ANOMALY":"328.3188","APOAPSIS":"541.798","BSTAR":"0.00004563500000","LAUNCH_DATE":"2022-02-21","SEMIMAJOR_AXIS":"6917.905","MEAN_ELEMENT_THEORY":"SGP4","NORAD_CAT_ID":"51747","MEAN_MOTION_DDOT":"0.0000000000000","RCS_SIZE":"LARGE","MEAN_MOTION_DOT":"0.00000438","TLE_LINE1":"1 51747U 22016AK  22351.87420858  .00000438  00000-0  45635-4 0  9992","OBJECT_NAME":"STARLINK-3446","FILE":"3707070","EPHEMERIS_TYPE":"0","INCLINATION":"53.2158","OBJECT_ID":"2022-016AK","SITE":"AFETR","CENTER_NAME":"EARTH","DECAY_DATE":null,"REV_AT_EPOCH":"4575","CLASSIFICATION_TYPE":"U","OBJECT_TYPE":"PAYLOAD","REF_FRAME":"TEME","PERIOD":"95.438","EPOCH":"2022-12-17T20:58:51.621312"},{"GP_ID":"220757864","COUNTRY_CODE":"US","ELEMENT_SET_NO":"999","MEAN_ANOMALY":"329.1490","MEAN_MOTION":"15.08833744","TLE_LINE2":"2 51748  53.2151 197.0576 0002693  30.9660 329.1490 15.08833744 45878","ARG_OF_PERICENTER":"30.9660","TIME_SYSTEM":"UTC","RA_OF_ASC_NODE":"197.0576","PERIAPSIS":"537.902","ECCENTRICITY":"0.00026930","SITE":"AFETR","DECAY_DATE":null,"REV_AT_EPOCH":"4587","CLASSIFICATION_TYPE":"U","CENTER_NAME":"EARTH","INCLINATION":"53.2151","OBJECT_ID":"2022-016AL","PERIOD":"95.438","REF_FRAME":"TEME","OBJECT_TYPE":"PAYLOAD","EPOCH":"2022-12-17T18:15:54.165312","MEAN_ELEMENT_THEORY":"SGP4","MEAN_MOTION_DDOT":"0.0000000000000","NORAD_CAT_ID":"51748","APOAPSIS":"541.628","SEMIMAJOR_AXIS":"6917.900","BSTAR":"-0.00004299100000","LAUNCH_DATE":"2022-02-21","EPHEMERIS_TYPE":"0","FILE":"3707070","TLE_LINE1":"1 51748U 22016AL  22351.76104358 -.00000973  00000-0 -42991-4 0  9993","MEAN_MOTION_DOT":"-0.00000973","RCS_SIZE":"LARGE","OBJECT_NAME":"STARLINK-3501"},{"RA_OF_ASC_NODE":"206.7088","PERIAPSIS":"537.917","TIME_SYSTEM":"UTC","ECCENTRICITY":"0.00026950","ELEMENT_SET_NO":"999","GP_ID":"220758116","COUNTRY_CODE":"US","TLE_LINE2":"2 51749  53.2161 206.7088 0002695  36.0507 324.0667 15.08828089 45747","MEAN_MOTION":"15.08828089","ARG_OF_PERICENTER":"36.0507","MEAN_ANOMALY":"324.0667","APOAPSIS":"541.646","SEMIMAJOR_AXIS":"6917.917","LAUNCH_DATE":"2022-02-21","BSTAR":"-0.00006624700000","MEAN_ELEMENT_THEORY":"SGP4","MEAN_MOTION_DDOT":"0.0000000000000","NORAD_CAT_ID":"51749","MEAN_MOTION_DOT":"-0.00001342","TLE_LINE1":"1 51749U 22016AM  22351.83837017 -.00001342  00000-0 -66247-4 0  9998","RCS_SIZE":"LARGE","OBJECT_NAME":"STARLINK-3451","EPHEMERIS_TYPE":"0","FILE":"3707070","INCLINATION":"53.2161","OBJECT_ID":"2022-016AM","SITE":"AFETR","DECAY_DATE":null,"CLASSIFICATION_TYPE":"U","REV_AT_EPOCH":"4574","CENTER_NAME":"EARTH","PERIOD":"95.438","REF_FRAME":"TEME","OBJECT_TYPE":"PAYLOAD","EPOCH":"2022-12-17T20:07:15.182688"},{"EPOCH":"2022-12-17T19:40:42.384864","PERIOD":"95.438","REF_FRAME":"TEME","OBJECT_TYPE":"PAYLOAD","OBJECT_ID":"2022-016AN","INCLINATION":"53.2166","CENTER_NAME":"EARTH","DECAY_DATE":null,"REV_AT_EPOCH":"4588","CLASSIFICATION_TYPE":"U","SITE":"AFETR","OBJECT_NAME":"STARLINK-3505","MEAN_MOTION_DOT":"0.00000725","TLE_LINE1":"1 51750U 22016AN  22351.81993501  .00000725  00000-0  63716-4 0  9999","RCS_SIZE":"LARGE","EPHEMERIS_TYPE":"0","FILE":"3707070","SEMIMAJOR_AXIS":"6917.900","LAUNCH_DATE":"2022-02-21","BSTAR":"0.00006371600000","APOAPSIS":"541.752","MEAN_MOTION_DDOT":"0.0000000000000","NORAD_CAT_ID":"51750","MEAN_ELEMENT_THEORY":"SGP4","MEAN_MOTION":"15.08833686","TLE_LINE2":"2 51750  53.2166 196.7919 0002872  36.2667 323.8520 15.08833686 45880","ARG_OF_PERICENTER":"36.2667","MEAN_ANOMALY":"323.8520","ELEMENT_SET_NO":"999","COUNTRY_CODE":"US","GP_ID":"220758367","ECCENTRICITY":"0.00028720","PERIAPSIS":"537.778","RA_OF_ASC_NODE":"196.7919","TIME_SYSTEM":"UTC"}];
